{
  "type": "FeatureCollection",
  "features": [
    {
      "type": "Feature",
      "properties": {
        "norad_id": 22490,
        "name": "SCD 1",
        "group": "resource",
        "lat": 16.80206944133807,
        "lon": 69.08805252042272,
        "alt_km": 763.5576577772781,
        "timestamp": "2025-12-10T23:33:12.483182+00:00",
        "meta_object_name": "SCD 1",
        "meta_object_id": "1993-009B",
        "meta_epoch": "2025-12-10T13:43:36.179328",
        "meta_mean_motion": 14.45996759,
        "meta_eccentricity": 0.00417468,
        "meta_inclination": 24.9703,
        "meta_ra_of_asc_node": 292.0692,
        "meta_arg_of_pericenter": 301.9893,
        "meta_mean_anomaly": 219.0671,
        "meta_ephemeris_type": 0,
        "meta_classification_type": "U",
        "meta_norad_cat_id": 22490,
        "meta_element_set_no": 999,
        "meta_rev_at_epoch": 73378,
        "meta_bstar": 0.00015981204,
        "meta_mean_motion_dot": 7.7e-06,
        "meta_mean_motion_ddot": 0,
        "tle_line1": "1 22490U 93009B   25344.57194652  .00000770  00000+0  15981-3 0  9995",
        "tle_line2": "2 22490  24.9703 292.0692 0041746 301.9893 219.0671 14.45996759733782"
      },
      "geometry": {
        "type": "Point",
        "coordinates": [
          69.08805252042272,
          16.80206944133807
        ]
      }
    },
    {
      "type": "Feature",
      "properties": {
        "norad_id": 25397,
        "name": "TECHSAT 1B (GO-32)",
        "group": "resource",
        "lat": 21.798285932753835,
        "lon": 151.78355530645945,
        "alt_km": 810.5242545365772,
        "timestamp": "2025-12-10T23:33:12.483222+00:00",
        "meta_object_name": "TECHSAT 1B (GO-32)",
        "meta_object_id": "1998-043D",
        "meta_epoch": "2025-12-10T09:19:40.960992",
        "meta_mean_motion": 14.24375977,
        "meta_eccentricity": 0.00021301,
        "meta_inclination": 98.9918,
        "meta_ra_of_asc_node": 327.5465,
        "meta_arg_of_pericenter": 61.168,
        "meta_mean_anomaly": 298.9711,
        "meta_ephemeris_type": 0,
        "meta_classification_type": "U",
        "meta_norad_cat_id": 25397,
        "meta_element_set_no": 999,
        "meta_rev_at_epoch": 42445,
        "meta_bstar": 9.4254531e-05,
        "meta_mean_motion_dot": 1.71e-06,
        "meta_mean_motion_ddot": 0,
        "tle_line1": "1 25397U 98043D   25344.38866853  .00000171  00000+0  94255-4 0  9992",
        "tle_line2": "2 25397  98.9918 327.5465 0002130  61.1680 298.9711 14.24375977424457"
      },
      "geometry": {
        "type": "Point",
        "coordinates": [
          151.78355530645945,
          21.798285932753835
        ]
      }
    },
    {
      "type": "Feature",
      "properties": {
        "norad_id": 25504,
        "name": "SCD 2",
        "group": "resource",
        "lat": 3.1874951683570716,
        "lon": -34.12575720197394,
        "alt_km": 744.5511740637567,
        "timestamp": "2025-12-10T23:33:12.483235+00:00",
        "meta_object_name": "SCD 2",
        "meta_object_id": "1998-060A",
        "meta_epoch": "2025-12-10T14:46:13.327392",
        "meta_mean_motion": 14.45421583,
        "meta_eccentricity": 0.00165993,
        "meta_inclination": 24.9931,
        "meta_ra_of_asc_node": 154.9953,
        "meta_arg_of_pericenter": 290.9292,
        "meta_mean_anomaly": 133.4568,
        "meta_ephemeris_type": 0,
        "meta_classification_type": "U",
        "meta_norad_cat_id": 25504,
        "meta_element_set_no": 999,
        "meta_rev_at_epoch": 43301,
        "meta_bstar": 0.0001194936,
        "meta_mean_motion_dot": 6.1e-06,
        "meta_mean_motion_ddot": 0,
        "tle_line1": "1 25504U 98060A   25344.61543203  .00000610  00000+0  11949-3 0  9994",
        "tle_line2": "2 25504  24.9931 154.9953 0016599 290.9292 133.4568 14.45421583433013"
      },
      "geometry": {
        "type": "Point",
        "coordinates": [
          -34.12575720197394,
          3.1874951683570716
        ]
      }
    },
    {
      "type": "Feature",
      "properties": {
        "norad_id": 25757,
        "name": "DLR-TUBSAT",
        "group": "resource",
        "lat": -19.15655536669262,
        "lon": 146.40736422116888,
        "alt_km": 713.2807964361509,
        "timestamp": "2025-12-10T23:33:12.483247+00:00",
        "meta_object_name": "DLR-TUBSAT",
        "meta_object_id": "1999-029B",
        "meta_epoch": "2025-12-10T09:24:39.471264",
        "meta_mean_motion": 14.52356238,
        "meta_eccentricity": 0.00137588,
        "meta_inclination": 98.6562,
        "meta_ra_of_asc_node": 328.8335,
        "meta_arg_of_pericenter": 200.082,
        "meta_mean_anomaly": 159.9835,
        "meta_ephemeris_type": 0,
        "meta_classification_type": "U",
        "meta_norad_cat_id": 25757,
        "meta_element_set_no": 999,
        "meta_rev_at_epoch": 40584,
        "meta_bstar": 7.3599921e-05,
        "meta_mean_motion_dot": 2.51e-06,
        "meta_mean_motion_ddot": 0,
        "tle_line1": "1 25757U 99029B   25344.39212351  .00000251  00000+0  73600-4 0  9996",
        "tle_line2": "2 25757  98.6562 328.8335 0013758 200.0820 159.9835 14.52356238405842"
      },
      "geometry": {
        "type": "Point",
        "coordinates": [
          146.40736422116888,
          -19.15655536669262
        ]
      }
    },
    {
      "type": "Feature",
      "properties": {
        "norad_id": 25994,
        "name": "TERRA",
        "group": "resource",
        "lat": -28.40610263920018,
        "lon": -147.6179160134119,
        "alt_km": 697.0353200951049,
        "timestamp": "2025-12-10T23:33:12.483259+00:00",
        "meta_object_name": "TERRA",
        "meta_object_id": "1999-068A",
        "meta_epoch": "2025-12-10T15:04:50.401632",
        "meta_mean_motion": 14.6089809,
        "meta_eccentricity": 0.00035964,
        "meta_inclination": 97.9752,
        "meta_ra_of_asc_node": 36.3904,
        "meta_arg_of_pericenter": 98.6615,
        "meta_mean_anomaly": 54.323,
        "meta_ephemeris_type": 0,
        "meta_classification_type": "U",
        "meta_norad_cat_id": 25994,
        "meta_element_set_no": 999,
        "meta_rev_at_epoch": 38207,
        "meta_bstar": 0.00015854021,
        "meta_mean_motion_dot": 7.31e-06,
        "meta_mean_motion_ddot": 0,
        "tle_line1": "1 25994U 99068A   25344.62836113  .00000731  00000+0  15854-3 0  9995",
        "tle_line2": "2 25994  97.9752  36.3904 0003596  98.6615  54.3230 14.60898090382075"
      },
      "geometry": {
        "type": "Point",
        "coordinates": [
          -147.6179160134119,
          -28.40610263920018
        ]
      }
    },
    {
      "type": "Feature",
      "properties": {
        "norad_id": 27004,
        "name": "MAROC-TUBSAT",
        "group": "resource",
        "lat": 49.179884430771466,
        "lon": 141.8638335394784,
        "alt_km": 1005.6869010694809,
        "timestamp": "2025-12-10T23:33:12.483269+00:00",
        "meta_object_name": "MAROC-TUBSAT",
        "meta_object_id": "2001-056D",
        "meta_epoch": "2025-12-10T11:07:51.424032",
        "meta_mean_motion": 13.70252712,
        "meta_eccentricity": 0.00190921,
        "meta_inclination": 99.7912,
        "meta_ra_of_asc_node": 152.8689,
        "meta_arg_of_pericenter": 266.2021,
        "meta_mean_anomaly": 111.9402,
        "meta_ephemeris_type": 0,
        "meta_classification_type": "U",
        "meta_norad_cat_id": 27004,
        "meta_element_set_no": 999,
        "meta_rev_at_epoch": 20034,
        "meta_bstar": 4.2568773e-05,
        "meta_mean_motion_dot": -9e-08,
        "meta_mean_motion_ddot": 0,
        "tle_line1": "1 27004U 01056D   25344.46378963 -.00000009  00000+0  42569-4 0  9998",
        "tle_line2": "2 27004  99.7912 152.8689 0019092 266.2021 111.9402 13.70252712200348"
      },
      "geometry": {
        "type": "Point",
        "coordinates": [
          141.8638335394784,
          49.179884430771466
        ]
      }
    },
    {
      "type": "Feature",
      "properties": {
        "norad_id": 27424,
        "name": "AQUA",
        "group": "resource",
        "lat": 75.22547417308645,
        "lon": -88.25947955837344,
        "alt_km": 679.6189124531465,
        "timestamp": "2025-12-10T23:33:12.483280+00:00",
        "meta_object_name": "AQUA",
        "meta_object_id": "2002-022A",
        "meta_epoch": "2025-12-10T15:46:22.970784",
        "meta_mean_motion": 14.61801296,
        "meta_eccentricity": 0.00010123,
        "meta_inclination": 98.4035,
        "meta_ra_of_asc_node": 305.5024,
        "meta_arg_of_pericenter": 114.8643,
        "meta_mean_anomaly": 57.9663,
        "meta_ephemeris_type": 0,
        "meta_classification_type": "U",
        "meta_norad_cat_id": 27424,
        "meta_element_set_no": 999,
        "meta_rev_at_epoch": 25572,
        "meta_bstar": 0.00036659101,
        "meta_mean_motion_dot": 1.781e-05,
        "meta_mean_motion_ddot": 0,
        "tle_line1": "1 27424U 02022A   25344.65721031  .00001781  00000+0  36659-3 0  9996",
        "tle_line2": "2 27424  98.4035 305.5024 0001012 114.8643  57.9663 14.61801296255725"
      },
      "geometry": {
        "type": "Point",
        "coordinates": [
          -88.25947955837344,
          75.22547417308645
        ]
      }
    }
  ]
}